COSMOS 1892             
1 18421U 87088A   21070.29828427  .00000949  00000-0  45634-4 0  9997
2 18421  82.5030   9.3859 0013765 214.2856 145.7491 15.17506405825011
SL-14 R/B               
1 18749U 88001B   21070.51131389  .00000087  00000-0  76519-5 0  9995
2 18749  82.5117 107.3797 0019858 134.9178 337.4176 14.83248983771458
COSMOS 1933             
1 18958U 88020A   21070.48787253  .00000102  00000-0  53381-5 0  9991
2 18958  82.5284 227.6938 0010525 330.3228  29.7400 15.03867732775219
SL-3 R/B                
1 19046U 88032B   21070.46729036  .00000173  00000-0  17087-4 0  9996
2 19046  97.3899  85.4911 0037827  18.1955 342.0614 15.02861557777068
SL-16 R/B               
1 19120U 88039B   21070.45681909  .00000113  00000-0  76639-4 0  9993
2 19120  71.0164 324.3330 0024206 258.8632 100.9771 14.19218768699534
COSMOS 1953             
1 19210U 88050A   21070.46890078  .00000000  00000-0 -19874-5 0  9991
2 19210  82.5176 150.6188 0011091 288.3693  71.6328 15.06186669761856
SL-8 R/B                
1 19257U 88053B   21070.47028264  .00000110  00000-0  45296-4 0  9993
2 19257  74.0475 229.9976 0019855 145.2941 273.2981 14.37510865714375
COSMOS 1975             
1 19573U 88093A   21070.50547715  .00000952  00000-0  64863-4 0  9994
2 19573  82.5175 105.4881 0013611 338.5824  21.4831 15.05090019743673
SL-14 R/B               
1 19574U 88093B   21070.44115102  .00000091  00000-0  81984-5 0  9997
2 19574  82.5320 310.3871 0020309 304.1076 229.2002 14.83360259730442
SL-16 R/B               
1 19650U 88102B   21070.34022749  .00000233  00000-0  14249-3 0  9992
2 19650  71.0018  28.6971 0016598 268.1743  91.7479 14.15801885668652
INTERCOSMOS 24          
1 20261U 89080A   21070.40183221  .00000243  00000-0  67823-4 0  9996
2 20261  82.6060 207.5022 1203056 191.7827 165.2635 12.56180999437513
SL-14 R/B               
1 20262U 89080C   21070.49902280  .00000075  00000-0  15901-4 0  9993
2 20262  82.5884 262.8652 1237173  28.3033 337.9942 12.48960346432327
DELTA 2 R/B(1)          
1 20303U 89085B   21070.45474650  .00001955  00000-0  62484-4 0  9991
2 20303  35.6435 131.7354 0091142  31.8353 328.7842 15.28731756709465
DELTA 1 R/B             
1 20323U 89089B   21070.30255022  .00000013  00000-0  12295-4 0  9990
2 20323  97.1155 179.9868 0073162 111.2490 249.6541 14.48387805631497
ARIANE 40 R/B           
1 20443U 90005H   21070.40687610  .00000003  00000-0  15498-4 0  9993
2 20443  98.5401 137.3025 0009270 266.5178  93.4949 14.38117226630480
DELTA 2 R/B(1)          
1 20453U 90008B   21070.39052261  .00001116  00000-0  64506-4 0  9993
2 20453  35.6240 121.5250 0277859  14.1435 346.6872 14.86332816650928
COSMOS 2058             
1 20465U 90010A   21070.35835443  .00000286  00000-0  21812-4 0  9996
2 20465  82.4918  16.4881 0016178  26.7010 333.5043 14.98156425668284
SL-14 R/B               
1 20466U 90010B   21070.34864973  .00000070  00000-0  59616-5 0  9991
2 20466  82.5060 176.9991 0020623 176.5507 183.5853 14.81413923658241
SL-14 R/B               
1 20511U 90018B   21070.51892611  .00000088  00000-0  85418-5 0  9997
2 20511  82.5220 124.4269 0016519 326.3753 153.5132 14.80069091652617
HST                     
1 20580U 90037B   21070.48746248  .00000597  00000-0  25225-4 0  9998
2 20580  28.4708 353.2648 0002876  89.5282  73.6493 15.09578613496279
SL-16 R/B               
1 20625U 90046B   21070.50421485  .00000109  00000-0  81103-4 0  9990
2 20625  71.0001 167.6649 0015144 204.6237 155.4164 14.14668526590388
COSMOS 2084             
1 20663U 90055A   21070.24401270  .00000082  00000-0  25985-4 0  9999
2 20663  62.7964 357.3404 0054971 350.8362   9.1723 14.92204941663162
SL-6 R/B(2)             
1 20666U 90055D   21070.25208854  .00000008  00000-0  19030-4 0  9998
2 20666  62.7841 273.0782 0085131  23.5503 336.9452 14.92450733665114
SL-8 R/B                
1 20775U 90078B   21070.33230351  .00001776  00000-0  82847-4 0  9999
2 20775  82.9304   6.3883 0570860  87.3396 279.2970 14.35345733544017
SL-8 R/B                
1 21088U 91006B   21070.48299228  .00000144  00000-0  12996-3 0  9998
2 21088  82.9383  86.6962 0024017 102.8101  51.1268 13.77153387512969
OKEAN-3                 
1 21397U 91039A   21070.32815794  .00000251  00000-0  21564-4 0  9993
2 21397  82.5191 282.9970 0017800   1.5416 358.5855 14.93052227592088
COSMOS 2151             
1 21422U 91042A   21070.34959015  .00000188  00000-0  15898-4 0  9995
2 21422  82.5020  28.8233 0015660  64.0565 296.2266 14.92223836590670
SL-14 R/B               
1 21423U 91042B   21070.41905968  .00000078  00000-0  71760-5 0  9991
2 21423  82.4932 127.4051 0019133 103.7059 256.6286 14.79818779583141
ERS-1                   
1 21574U 91050A   21070.51251227  .00000018  00000-0  20696-4 0  9995
2 21574  98.6359  30.4719 0032274 211.4880 148.4375 14.37785155553491
ARIANE 40 R/B           
1 21610U 91050F   21070.46485162  .00000013  00000-0  17538-4 0  9993
2 21610  98.4329 142.6116 0003644 159.3746 211.7726 14.40936670556158
INTERCOSMOS 25          
1 21819U 91086A   21070.40337850  .00000694  00000-0  13258-3 0  9996
2 21819  82.5799 326.3818 1517519  63.1589 311.6459 12.05161473276447
SL-8 R/B                
1 21876U 92008B   21070.45497411  .00000013  00000-0 -21752-5 0  9995
2 21876  82.9305 183.9680 0034855 186.2931 243.5602 13.75667665458587
SL-8 R/B                
1 21938U 92020B   21070.48805465 -.00000080  00000-0 -98463-4 0  9990
2 21938  82.9269  68.3129 0029046 351.3598 176.2581 13.75287969450371
COSMOS 2219             
1 22219U 92076A   21070.47808808  .00000260  00000-0  16214-3 0  9998
2 22219  71.0581 229.8931 0016705 109.6167 250.6761 14.13651977460543
SL-16 R/B               
1 22220U 92076B   21070.45226243 -.00000184  00000-0 -68156-4 0  9995
2 22220  70.9976  69.5306 0013256 345.2914 123.8305 14.16467388463487
COSMOS 2221             
1 22236U 92080A   21070.46384652  .00000223  00000-0  21550-4 0  9996
2 22236  82.5089 211.3287 0017427 151.2725 208.9456 14.88021355508988
SL-16 R/B               
1 22285U 92093B   21070.50914938 -.00000289  00000-0 -12460-3 0  9998
2 22285  71.0197 232.2524 0005828 229.2533 130.8084 14.15053753455096
COSMOS 2228             
1 22286U 92094A   21070.51124196  .00000215  00000-0  20555-4 0  9992
2 22286  82.5229 167.8600 0019540 274.0120  85.8864 14.88241598504168
SL-16 R/B               
1 22566U 93016B   21070.48021328 -.00000151  00000-0 -53501-4 0  9995
2 22566  71.0049  85.2325 0012028 228.4259 131.5833 14.14975562444105
COSMOS 2242             
1 22626U 93024A   21070.44800403  .00000195  00000-0  18537-4 0  9992
2 22626  82.5241 196.1434 0017399 274.3549  85.5681 14.88092160508558
SL-16 R/B               
1 22803U 93059B   21070.20452232 -.00000010  00000-0  19035-4 0  9995
2 22803  70.9865 257.1068 0015169 112.9775 247.2950 14.16831317421084
ARIANE 40 R/B           
1 22830U 93061H   21070.31562779  .00000054  00000-0  37282-4 0  9999
2 22830  98.7272 127.4643 0009873 257.8791 102.1285 14.31471372433007
COSMOS 2278             
1 23087U 94023A   21070.33660933  .00000150  00000-0  10402-3 0  9997
2 23087  71.0564  29.8129 0010994 289.5956  70.3979 14.13827388386910
SL-16 R/B               
1 23088U 94023B   21070.32500508  .00000149  00000-0  10220-3 0  9994
2 23088  70.9990 300.9761 0004369 216.8736 143.2086 14.14682769388054
SL-16 R/B               
1 23343U 94074B   21070.18769047  .00000036  00000-0  12439-4 0  9993
2 23343  97.9604 126.2523 0007262  22.5178  43.8991 14.76866867417785
SL-16 R/B               
1 23405U 94077B   21070.51899594 -.00000162  00000-0 -58459-4 0  9997
2 23405  70.9819 228.9200 0001576 349.1691  10.9397 14.15239411358135
ERS-2                   
1 23560U 95021A   21070.49431805  .00000993  00000-0  45114-4 0  9997
2 23560  98.5554 266.9860 0003273   3.4792 356.6464 15.23728531382779
ARIANE 40+ R/B          
1 23561U 95021B   21070.35788672  .00000041  00000-0  28499-4 0  9991
2 23561  98.6889 119.1448 0007146 173.6743 197.5050 14.38013150356933
SL-16 R/B               
1 23705U 95058B   21070.35447004 -.00000232  00000-0 -94970-4 0  9993
2 23705  71.0206  48.9542 0011871   9.3267 350.8074 14.15144204309737
SL-16 R/B               
1 24298U 96051B   21070.42709289 -.00000122  00000-0 -39399-4 0  9991
2 24298  70.8343  67.6811 0017498 308.5878  51.3674 14.12463072264052
ORBVIEW 2 (SEASTAR)     
1 24883U 97037A   21070.29886458  .00000017  00000-0  22325-4 0  9997
2 24883  98.6287 188.5843 0003050  56.5264 303.6212 14.33599655246942
SL-16 R/B               
1 25400U 98043G   21070.44541202 -.00000026  00000-0  76876-5 0  9995
2 25400  98.6331   7.7701 0008812 278.5434  81.4747 14.25471505179054
SL-16 R/B               
1 25407U 98045B   21070.40145194 -.00000073  00000-0 -13047-4 0  9993
2 25407  71.0116  56.5692 0009881 282.5915  77.4103 14.15837754168863
ISS (ZARYA)             
1 25544U 98067A   21070.56371257  .00000190  00000-0  11604-4 0  9992
2 25544  51.6449 105.5716 0003537  92.5287  68.2826 15.49049103273467
SL-8 R/B                
1 25723U 99022C   21070.41577958  .00116706  16425-4  24245-3 0  9990
2 25723  48.4056 320.3064 0006000 209.5769 150.4855 15.98783059219937
CZ-4B R/B               
1 25732U 99025C   21070.38540726 -.00000029  00000-0  75809-5 0  9995
2 25732  98.9157 106.5617 0037622 168.0900 202.9610 14.17689057129640
OKEAN-O                 
1 25860U 99039A   21070.41741350  .00000054  00000-0  15369-4 0  9993
2 25860  98.1944  99.7671 0001901  93.3153 266.8274 14.76716924164915
SL-16 R/B               
1 25861U 99039B   21070.51325486  .00000036  00000-0  12408-4 0  9994
2 25861  98.2094  83.9577 0016129  24.8602  92.2790 14.78625218167081
DELTA 2 R/B             
1 25876U 99041E   21070.43029811  .00000135  00000-0  64743-4 0  9996
2 25876  51.7650 336.3418 0531865  42.7904 321.3178 14.04533121106147
